STARLINK-34316          
1 64707U 25142M   25328.68823535  .00006084  00000+0  51706-3 0  9997
2 64707  70.0009 219.1574 0002549 267.6343  92.4524 14.98343084 23928
STARLINK-34563          
1 64708U 25142N   25328.72999201  .00012361  00000+0  10412-2 0  9990
2 64708  70.0013 219.2958 0002865 275.2107  84.8726 14.98358105 23733
STARLINK-34499          
1 64709U 25142P   25328.72047751  .00009065  00000+0  81514-3 0  9994
2 64709  70.0003 218.8481 0003276 274.9428  85.1356 14.95929542 23748
STARLINK-34447          
1 64710U 25142Q   25328.73435688  .00005098  00000+0  46237-3 0  9992
2 64710  70.0023 218.0954 0002252 282.7058  77.3848 14.95921585 23959
STARLINK-34312          
1 64711U 25142R   25328.83337963 -.00033176  00000+0 -27843-2 0  9992
2 64711  70.0016 218.8080 0002564 273.7504 125.5959 14.98351608  5812
STARLINK-34515          
1 64712U 25142S   25328.61700742 -.00000530  00000+0 -39136-4 0  9996
2 64712  70.0010 218.8886 0002557 269.1854  90.9011 14.95925655 23731
STARLINK-34583          
1 64713U 25142T   25328.41078258  .00003041  00000+0  27920-3 0  9990
2 64713  70.0012 219.3720 0002522 275.9181  84.1689 14.95914407 23703
STARLINK-34574          
1 64714U 25142U   25328.77188241  .00015306  00000+0  12885-2 0  9994
2 64714  70.0012 219.0426 0001892 286.7780  73.3172 14.98308853 23777
STARLINK-34533          
1 64715U 25142V   25328.42536907  .00001310  00000+0  11759-3 0  9993
2 64715  70.0009 219.8446 0002365 267.3861  92.7027 14.98329147 23699
STARLINK-34548          
1 64716U 25142W   25328.67571277  .00003401  00000+0  29272-3 0  9992
2 64716  70.0000 219.1112 0002963 267.2709  92.8111 14.98327514 23734
STARLINK-34568          
1 64717U 25142X   25328.43372485  .00002428  00000+0  21120-3 0  9999
2 64717  70.0019 219.8728 0002382 278.4840  81.6049 14.98331713 23721
STARLINK-34546          
1 64718U 25142Y   25328.66735516 -.00002296  00000+0 -18465-3 0  9996
2 64718  70.0006 219.0807 0002724 265.9028  94.1820 14.98342712 23926
STARLINK-34577          
1 64719U 25142Z   25328.73270279 -.00004926  00000+0 -43148-3 0  9993
2 64719  70.0012 218.0903 0001374 252.7181 107.3826 14.95924057 23797
STARLINK-34572          
1 64720U 25142AA  25328.42954911  .00007049  00000+0  59784-3 0  9993
2 64720  70.0012 219.8564 0002240 272.4962  87.5941 14.98338378 23885
STARLINK-34558          
1 64721U 25142AB  25328.69675524  .00012195  00000+0  10278-2 0  9995
2 64721  70.0016 219.1783 0002110 270.2399  89.8518 14.98339850 23737
STARLINK-34393          
1 64724U 25144A   25328.65066543  .00041715  00000+0  14127-2 0  9998
2 64724  53.1597 308.6755 0001656  83.1872 276.9317 15.30199518 23648
STARLINK-34562          
1 64725U 25144B   25328.23461483  .00025545  00000+0  87157-3 0  9992
2 64725  53.1606 311.0566 0001148  93.1880 266.9252 15.30202980 23548
STARLINK-34557          
1 64726U 25144C   25328.67070793  .00025374  00000+0  86626-3 0  9991
2 64726  53.1610 308.8030 0001203  87.1381 272.9757 15.30187170 23635
STARLINK-34242          
1 64727U 25144D   25328.37262970  .00036259  00000+0  12298-2 0  9996
2 64727  53.1596 310.4964 0001216  67.8164 292.2965 15.30214122 23580
STARLINK-34239          
1 64728U 25144E   25328.66332373  .00033566  00000+0  11404-2 0  9990
2 64728  53.1611 308.7519 0001148  88.6227 271.4905 15.30196809 23630
STARLINK-34588          
1 64729U 25144F   25328.68548684  .00031759  00000+0  10797-2 0  9993
2 64729  53.1617 308.8913 0001170  95.3013 264.8122 15.30205089 23637
STARLINK-34606          
1 64730U 25144G   25328.33780132  .00011523  00000+0  40095-3 0  9995
2 64730  53.1607 310.2777 0000966 107.7271 252.3835 15.30169814 23581
STARLINK-34552          
1 64731U 25144H   25328.65593183  .00005506  00000+0  19792-3 0  9993
2 64731  53.1599 308.7028 0001689  83.1479 276.9714 15.30198294 23631
STARLINK-34596          
1 64732U 25144J   25328.22300609  .00041613  00000+0  14089-2 0  9998
2 64732  53.1626 310.9835 0001015 102.7235 257.3879 15.30209175 23563
STARLINK-34556          
1 64733U 25144K   25328.64485831  .00033375  00000+0  11336-2 0  9994
2 64733  53.1589 306.5054 0001730  80.9665 279.1532 15.30210015 23668
STARLINK-34591          
1 64734U 25144L   25328.66016213  .00022822  00000+0  78009-3 0  9997
2 64734  53.1609 308.7327 0001885  92.4024 267.7193 15.30208612 23618
STARLINK-34587          
1 64735U 25144M   25328.36313316  .00017547  00000+0  60288-3 0  9997
2 64735  53.1606 310.4388 0001522  82.8767 277.2407 15.30216064 23533
STARLINK-34130          
1 64736U 25144N   25328.67282442  .00024969  00000+0  85221-3 0  9997
2 64736  53.1617 308.8103 0001566  77.9416 282.1760 15.30204571 23634
STARLINK-34619          
1 64737U 25144P   25328.24622549  .00034481  00000+0  11703-2 0  9990
2 64737  53.1596 311.1238 0001490  97.3590 262.7580 15.30218052 23567
STARLINK-34597          
1 64738U 25144Q   25328.19029039  .00024327  00000+0  83081-3 0  9997
2 64738  53.1595 310.7865 0001975 126.6957 233.4226 15.30198337 23542
STARLINK-34471          
1 64739U 25144R   25328.68653997  .00030309  00000+0  10307-2 0  9995
2 64739  53.1620 308.8925 0001325 100.8382 259.2768 15.30218832 23575
STARLINK-34208          
1 64740U 25144S   25328.64274197  .00054996  00000+0  18570-2 0  9992
2 64740  53.1591 306.4932 0001533  90.1461 269.9715 15.30170023 23665
STARLINK-34205          
1 64741U 25144T   25328.21983812  .00039166  00000+0  13263-2 0  9993
2 64741  53.1623 310.9590 0000997 115.9875 244.1229 15.30229294 23569
STARLINK-34607          
1 64742U 25144U   25328.36630971 -.00004265  00000+0 -13212-3 0  9994
2 64742  53.1609 310.4493 0001308  73.7239 286.3905 15.30159721 23569
STARLINK-34236          
1 64743U 25144V   25328.67599023  .00033605  00000+0  11413-2 0  9999
2 64743  53.1619 308.8282 0001788  84.9362 275.1842 15.30207644 23633
STARLINK-34185          
1 64744U 25144W   25328.65277469  .00032270  00000+0  10966-2 0  9994
2 64744  53.1598 308.6812 0002117  82.6416 277.4825 15.30210937 23634
STARLINK-34581          
1 64745U 25144X   25328.37473956  .00018611  00000+0  63891-3 0  9992
2 64745  53.1592 310.5003 0001233  90.9530 269.1612 15.30200444 23588
STARLINK-34592          
1 64746U 25144Y   25328.35574619  .00040720  00000+0  10216-2 0  9997
2 64746  53.1590 302.5809 0001674 113.7619 246.3562 15.39647142 23695
STARLINK-34589          
1 64747U 25144Z   25328.62343997  .00059729  00000+0  14923-2 0  9999
2 64747  53.1604 297.0810 0000642 114.5040 245.6032 15.39604718 23790
STARLINK-34536          
1 64748U 25144AA  25328.68233084  .00026833  00000+0  91558-3 0  9991
2 64748  53.1624 308.8630 0002374  86.1001 274.0272 15.30172574 23635
STARLINK-34595          
1 64749U 25144AB  25328.68337606  .00033701  00000+0  11446-2 0  9996
2 64749  53.1619 308.8674 0001405  86.0835 274.0326 15.30206306 23637
STARLINK-34531          
1 64750U 25144AC  25328.66648860  .00024713  00000+0  84309-3 0  9995
2 64750  53.1617 308.7700 0001604 101.0963 259.0219 15.30225613 23633
STARLINK-33965          
1 64755U 25147A   25328.34636406  .00033455  00000+0  11365-2 0  9995
2 64755  53.1581  12.0379 0001217  91.7996 268.3144 15.30201420 22668
STARLINK-34371          
1 64756U 25147B   25328.56446963  .00017652  00000+0  60645-3 0  9994
2 64756  53.1587  11.2608 0001508  73.3361 286.7806 15.30212628 22601
STARLINK-34401          
1 64757U 25147C   25328.50970763  .00032242  00000+0  10956-2 0  9990
2 64757  53.1610  11.6318 0001360  75.0864 285.0287 15.30211780 22573
STARLINK-34593          
1 64758U 25147D   25328.54125103  .00032039  00000+0  10890-2 0  9996
2 64758  53.1583  11.1206 0000946  54.2974 305.8115 15.30206059 22657
STARLINK-34598          
1 64759U 25147E   25328.39795943  .00022602  00000+0  77298-3 0  9996
2 64759  53.1602  11.6428 0001171  83.5136 276.5998 15.30197687 22588
STARLINK-34235          
1 64760U 25147F   25328.54547253  .00044195  00000+0  14951-2 0  9991
2 64760  53.1582  11.1476 0001323  96.1296 263.9856 15.30207773 22694
STARLINK-34635          
1 64761U 25147G   25328.52963594  .00029407  00000+0  99998-3 0  9994
2 64761  53.1599  11.0451 0001514  62.8994 297.2161 15.30235741 22653
STARLINK-34638          
1 64762U 25147H   25328.42009535  .00025383  00000+0  86456-3 0  9994
2 64762  53.1581  11.7836 0001147 111.6273 248.4850 15.30261235 22632
STARLINK-34534          
1 64763U 25147J   25328.49282103  .00034899  00000+0  11849-2 0  9991
2 64763  53.1581  11.5209 0001029  87.8260 272.2858 15.30201155 22643
STARLINK-34261          
1 64764U 25147K   25328.41695394  .00020639  00000+0  70727-3 0  9992
2 64764  53.1583  11.7632 0001295  92.8705 267.2444 15.30189314 22673
STARLINK-34566          
1 64765U 25147L   25328.66554828  .00029050  00000+0  98853-3 0  9992
2 64765  53.1585  10.4685 0001220  93.1795 266.9345 15.30218616 22675
STARLINK-34645          
1 64766U 25147M   25328.44650236  .00029319  00000+0  99795-3 0  9993
2 64766  53.1611  11.9466 0001253  83.2833 276.8310 15.30205230 22634
STARLINK-34639          
1 64767U 25147N   25328.53386514  .00030862  00000+0  10497-2 0  9995
2 64767  53.1580  11.0690 0001034  80.3926 279.7192 15.30204460 22609
STARLINK-34609          
1 64768U 25147P   25328.59802022  .00053199  00000+0  13299-2 0  9990
2 64768  53.1595   4.3732 0001016  91.4633 268.6488 15.39638285 22752
STARLINK-34246          
1 64769U 25147Q   25328.34003259  .00016220  00000+0  55869-3 0  9993
2 64769  53.1588  11.9941 0001289  58.6060 301.5067 15.30193056 22621
STARLINK-34618          
1 64770U 25147R   25328.34319676  .00015612  00000+0  53799-3 0  9992
2 64770  53.1587  12.0165 0001399 104.3078 255.8078 15.30208372 22555
STARLINK-34541          
1 64771U 25147S   25328.38846102  .00031925  00000+0  10854-2 0  9995
2 64771  53.1598  11.5846 0001241 110.2843 249.8291 15.30199600 22564
